{
 "type": "FeatureCollection",
 "features": [
  {
   "type": "Feature",
   "properties": {
    "LABEL": "TSTM",
    "LABEL2": "TSTM",
    "VALID": "",
    "EXPIRE": ""
   },
   "geometry": {
    "type": "MultiPolygon",
    "coordinates": [
     [
      [
       [
        -83,
        24.5
       ],
       [
        -79.5,
        24.5
       ],
       [
        -79.5,
        29.5
       ],
       [
        -83,
        29.5
       ],
       [
        -83,
        24.5
       ]
      ]
     ],
     [
      [
       [
        -125,
        44
       ],
       [
        -120,
        44
       ],
       [
        -120,
        49
       ],
       [
        -125,
        49
       ],
       [
        -125,
        44
       ]
      ]
     ]
    ]
   }
  },
  {
   "type": "Feature",
   "properties": {
    "LABEL": "MRGL",
    "LABEL2": "MRGL",
    "VALID": "",
    "EXPIRE": ""
   },
   "geometry": {
    "type": "Polygon",
    "coordinates": [
     [
      [
       -86,
       32
      ],
      [
       -79.5,
       32
      ],
      [
       -79.5,
       36
      ],
      [
       -86,
       36
      ],
      [
       -86,
       32
      ]
     ]
    ]
   }
  },
  {
   "type": "Feature",
   "properties": {
    "LABEL": "SLGT",
    "LABEL2": "SLGT",
    "VALID": "",
    "EXPIRE": ""
   },
   "geometry": {
    "type": "Polygon",
    "coordinates": [
     [
      [
       -100,
       28.5
      ],
      [
       -93,
       28.5
      ],
      [
       -93,
       35.5
      ],
      [
       -100,
       35.5
      ],
      [
       -100,
       28.5
      ]
     ]
    ]
   }
  },
  {
   "type": "Feature",
   "properties": {
    "LABEL": "ENH",
    "LABEL2": "ENH",
    "VALID": "",
    "EXPIRE": ""
   },
   "geometry": {
    "type": "Polygon",
    "coordinates": [
     [
      [
       -99,
       31.5
      ],
      [
       -95.5,
       31.5
      ],
      [
       -95.5,
       34.5
      ],
      [
       -99,
       34.5
      ],
      [
       -99,
       31.5
      ]
     ]
    ]
   }
  }
 ]
}
