{"type": "FeatureCollection", "features": [{"type": "Feature", "geometry": {"type": "MultiPolygon", "coordinates": [[[[-110.69, 32.83], [-111.77, 34.08], [-112.55, 34.8], [-113.57, 35.13], [-114.1, 35.14], [-115.15, 34.78], [-115.47, 33.93], [-115.7312431683473, 32.44962204603187], [-115.798, 32.441], [-116.707, 32.394], [-116.98723132183909, 32.39564841954023], [-117.22, 33.35], [-117.17, 35.22], [-116.67, 37.2], [-116.69, 39.93], [-116.72, 40.5], [-116.22, 41.43], [-115.01, 42.68], [-114.05, 43.89], [-113.48, 45.44], [-112.95, 46.3], [-112.61, 46.58], [-111.86, 47.1], [-110.51, 47.42], [-109.28999999999999, 47.36], [-107.39, 46.91], [-105.03, 46.32], [-103.91, 46.21], [-102.9, 46.14], [-102.44, 45.69], [-102.44, 45.06], [-102.85, 42.89], [-103.0, 42.23], [-103.45, 41.58], [-104.84, 40.4], [-105.57, 39.28], [-105.92, 37.92], [-105.94, 35.86], [-106.28, 33.26], [-106.91, 31.76], [-106.93698195356345, 31.59039914902982], [-107.183, 31.602], [-107.745, 31.62], [-108.002, 31.623], [-108.044, 31.186], [-109.094, 31.123], [-109.962, 31.131], [-110.46014393463638, 31.141441981367223], [-110.69, 32.83]]], [[[-76.8, 35.81], [-82.32, 35.04], [-83.85, 34.34], [-84.62, 33.43], [-84.71, 32.23], [-84.59, 31.31], [-84.8, 30.39], [-85.19771043072133, 29.296296315516347], [-85.336, 29.335], [-85.675, 29.436], [-85.767, 29.696], [-85.985, 29.876], [-86.03639788399774, 29.89668845645192], [-85.82, 30.61], [-85.58, 31.52], [-85.47, 32.26], [-85.58, 33.16], [-85.8, 33.61], [-86.66, 33.91], [-87.76, 34.04], [-88.41, 34.54], [-88.98, 36.08], [-88.84, 37.24], [-88.41, 38.22], [-87.59, 39.7], [-86.27, 40.94], [-84.32, 41.47], [-82.84, 41.48], [-81.62, 41.21], [-80.96, 40.53], [-80.41, 39.33], [-80.06, 37.88], [-79.55, 36.82], [-78.88, 36.21], [-78.11, 36.06], [-76.75, 36.26], [-75.47445077350824, 36.461402509446074], [-75.371, 36.199], [-75.25415973136687, 35.94297550697919], [-76.8, 35.81]]], [[[-82.95, 29.39], [-82.16, 30.34], [-81.02629147557421, 30.914514454945497], [-81.09, 30.74], [-80.989, 30.128], [-80.765, 29.498], [-80.349, 28.83], [-80.197, 28.552], [-80.271, 28.232], [-79.788, 27.148], [-79.7, 26.777], [-79.766, 26.228], [-79.812, 25.576], [-79.965, 25.158], [-80.143, 24.859], [-80.331, 24.705], [-80.635, 24.487], [-81.054, 24.361], [-81.782, 24.208], [-82.816, 24.169], [-83.288, 24.221], [-83.28, 24.513], [-83.238, 24.798], [-83.163, 25.012], [-82.313, 25.017], [-82.368, 25.134], [-82.51, 25.288], [-82.632, 25.453], [-81.934, 25.61], [-82.143, 26.09], [-82.324, 26.171], [-82.535, 26.48], [-82.719, 26.892], [-83.105, 27.532], [-83.07, 27.615], [-83.183, 27.781], [-83.185, 28.105], [-83.156, 28.373], [-83.014, 28.465], [-82.99, 28.551], [-83.026, 28.753], [-83.273, 28.827], [-83.2882584943371, 28.854424050632915], [-82.95, 29.39]]]]}, "properties": {"DN": 2, "VALID": "202610101200", "EXPIRE": "202610111200", "ISSUE": "202610100554", "VALID_ISO": "2026-10-10T12:00:00+00:00", "EXPIRE_ISO": "2026-10-11T12:00:00+00:00", "ISSUE_ISO": "2026-10-10T05:54:00+00:00", "FORECASTER": "Broyles/Chalmers", "LABEL": "TSTM", "LABEL2": "General Thunderstorms Risk", "stroke": "#55BB55", "fill": "#C1E9C1"}}, {"type": "Feature", "geometry": {"type": "MultiPolygon", "coordinates": [[[[-82.16, 30.34], [-82.95, 29.39], [-83.2882584943371, 28.854424050632915], [-83.421, 29.093], [-83.56262480939462, 29.229765134562452], [-82.64, 30.6], [-81.78, 31.16], [-79.74, 32.71], [-79.72, 33.46], [-80.34, 34.12], [-82.46, 34.08], [-83.83, 33.67], [-84.29, 33.06], [-84.11, 31.49], [-84.33, 30.4], [-84.65061990835031, 29.37401629327902], [-85.018, 29.246], [-85.19771043072133, 29.296296315516347], [-84.8, 30.39], [-84.59, 31.31], [-84.71, 32.23], [-84.62, 33.43], [-83.85, 34.34], [-82.32, 35.04], [-76.8, 35.81], [-75.25415973136687, 35.94297550697919], [-75.12, 35.649], [-75.166, 35.243], [-75.279, 34.984], [-75.429, 34.931], [-75.726, 34.857], [-76.265, 34.375], [-76.54, 34.248], [-76.776, 34.354], [-76.936, 34.358], [-77.521, 34.032], [-77.684, 33.615], [-77.95, 33.516], [-78.163, 33.577], [-78.569, 33.483], [-78.808, 33.309], [-78.931, 32.928], [-79.294, 32.69], [-79.725, 32.427], [-80.061, 32.203], [-80.21, 32.07], [-80.436, 31.966], [-80.764, 31.633], [-81.02629147557421, 30.9145144549455], [-82.16, 30.34]]], [[[-115.47, 33.93], [-115.15, 34.78], [-114.1, 35.14], [-113.57, 35.13], [-112.55, 34.8], [-111.77, 34.08], [-110.69, 32.83], [-110.46014393463638, 31.141441981367223], [-110.773, 31.148], [-111.169, 31.194], [-112.25, 31.509], [-113.701, 31.959], [-114.586, 32.219], [-115.006, 32.395], [-115.016, 32.542], [-115.7312431683473, 32.44962204603187], [-115.47, 33.93]]]]}, "properties": {"DN": 3, "VALID": "202610101200", "EXPIRE": "202610111200", "ISSUE": "202610100554", "VALID_ISO": "2026-10-10T12:00:00+00:00", "EXPIRE_ISO": "2026-10-11T12:00:00+00:00", "ISSUE_ISO": "2026-10-10T05:54:00+00:00", "FORECASTER": "Broyles/Chalmers", "LABEL": "MRGL", "LABEL2": "Marginal Risk", "stroke": "#005500", "fill": "#66A366"}}, {"type": "Feature", "geometry": {"type": "Polygon", "coordinates": [[[-84.33, 30.4], [-84.11, 31.49], [-84.29, 33.06], [-83.83, 33.67], [-82.46, 34.08], [-80.34, 34.12], [-79.72, 33.46], [-79.74, 32.71], [-81.78, 31.16], [-82.64, 30.6], [-83.56262480939462, 29.229765134562452], [-83.625, 29.29], [-83.895, 29.642], [-84.073, 29.73], [-84.171, 29.626], [-84.467, 29.438], [-84.65061990835031, 29.37401629327902], [-84.33, 30.4]]]}, "properties": {"DN": 4, "VALID": "202610101200", "EXPIRE": "202610111200", "ISSUE": "202610100554", "VALID_ISO": "2026-10-10T12:00:00+00:00", "EXPIRE_ISO": "2026-10-11T12:00:00+00:00", "ISSUE_ISO": "2026-10-10T05:54:00+00:00", "FORECASTER": "Broyles/Chalmers", "LABEL": "SLGT", "LABEL2": "Slight Risk", "stroke": "#DDAA00", "fill": "#FFE066"}}]}